[{"OBJECT_NAME":"ONEWEB-0269","OBJECT_ID":"2021-060W","EPOCH":"2026-03-09T21:56:15.563328","MEAN_MOTION":13.16592945,"ECCENTRICITY":0.00014435,"INCLINATION":87.8994,"RA_OF_ASC_NODE":248.5392,"ARG_OF_PERICENTER":91.3563,"MEAN_ANOMALY":268.7733,"EPHEMERIS_TYPE":0,"CLASSIFICATION_TYPE":"U","NORAD_CAT_ID":48987,"ELEMENT_SET_NO":999,"REV_AT_EPOCH":22656,"BSTAR":-0.0004078972,"MEAN_MOTION_DOT":-1.43e-6,"MEAN_MOTION_DDOT":0},{"OBJECT_NAME":"THORAD AGENA D DEB","OBJECT_ID":"1970-025NV","EPOCH":"2026-03-09T06:54:07.230816","MEAN_MOTION":13.07361468,"ECCENTRICITY":0.0272367,"INCLINATION":101.6091,"RA_OF_ASC_NODE":349.5941,"ARG_OF_PERICENTER":7.122,"MEAN_ANOMALY":142.7899,"EPHEMERIS_TYPE":0,"CLASSIFICATION_TYPE":"U","NORAD_CAT_ID":14469,"ELEMENT_SET_NO":999,"REV_AT_EPOCH":13285,"BSTAR":-0.00016035393,"MEAN_MOTION_DOT":-1.16e-6,"MEAN_MOTION_DDOT":0}]
